[{"OBJECT_NAME":"ONEWEB-0597","OBJECT_ID":"2022-166X","EPOCH":"2025-08-01T07:37:39.727488","MEAN_MOTION":13.21824601,"ECCENTRICITY":0.0002079,"INCLINATION":87.9273,"RA_OF_ASC_NODE":307.8091,"ARG_OF_PERICENTER":103.7918,"MEAN_ANOMALY":256.3448,"EPHEMERIS_TYPE":0,"CLASSIFICATION_TYPE":"U","NORAD_CAT_ID":54663,"ELEMENT_SET_NO":999,"REV_AT_EPOCH":12928,"BSTAR":0.00082374,"MEAN_MOTION_DOT":3.53e-6,"MEAN_MOTION_DDOT":0},{"OBJECT_NAME":"ONEWEB-0600","OBJECT_ID":"2022-166Y","EPOCH":"2025-08-01T07:12:40.643424","MEAN_MOTION":13.21826266,"ECCENTRICITY":0.0002153,"INCLINATION":87.9265,"RA_OF_ASC_NODE":307.8087,"ARG_OF_PERICENTER":100.7809,"MEAN_ANOMALY":259.3568,"EPHEMERIS_TYPE":0,"CLASSIFICATION_TYPE":"U","NORAD_CAT_ID":54664,"ELEMENT_SET_NO":999,"REV_AT_EPOCH":12925,"BSTAR":0.00020908,"MEAN_MOTION_DOT":9.9e-7,"MEAN_MOTION_DDOT":0},{"OBJECT_NAME":"ONEWEB-0601","OBJECT_ID":"2022-166Z","EPOCH":"2025-08-01T14:17:19.191264","MEAN_MOTION":13.21827164,"ECCENTRICITY":0.0002137,"INCLINATION":87.9271,"RA_OF_ASC_NODE":307.7649,"ARG_OF_PERICENTER":109.3798,"MEAN_ANOMALY":250.7567,"EPHEMERIS_TYPE":0,"CLASSIFICATION_TYPE":"U","NORAD_CAT_ID":54665,"ELEMENT_SET_NO":999,"REV_AT_EPOCH":12948,"BSTAR":0.00015058,"MEAN_MOTION_DOT":7.5e-7,"MEAN_MOTION_DDOT":0},{"OBJECT_NAME":"ONEWEB-0602","OBJECT_ID":"2022-166AA","EPOCH":"2025-08-01T08:00:20.911104","MEAN_MOTION":13.21826965,"ECCENTRICITY":0.0002242,"INCLINATION":87.9275,"RA_OF_ASC_NODE":307.8175,"ARG_OF_PERICENTER":102.9773,"MEAN_ANOMALY":257.1611,"EPHEMERIS_TYPE":0,"CLASSIFICATION_TYPE":"U","NORAD_CAT_ID":54666,"ELEMENT_SET_NO":999,"REV_AT_EPOCH":12929,"BSTAR":3.4874e-5,"MEAN_MOTION_DOT":2.7e-7,"MEAN_MOTION_DDOT":0},{"OBJECT_NAME":"ONEWEB-0603","OBJECT_ID":"2022-166AB","EPOCH":"2025-08-01T08:07:10.137792","MEAN_MOTION":13.21827718,"ECCENTRICITY":0.0002167,"INCLINATION":87.9267,"RA_OF_ASC_NODE":307.7533,"ARG_OF_PERICENTER":105.6332,"MEAN_ANOMALY":254.5042,"EPHEMERIS_TYPE":0,"CLASSIFICATION_TYPE":"U","NORAD_CAT_ID":54667,"ELEMENT_SET_NO":999,"REV_AT_EPOCH":12922,"BSTAR":-6.0304e-5,"MEAN_MOTION_DOT":-1.2e-7,"MEAN_MOTION_DDOT":0},{"OBJECT_NAME":"ONEWEB-0604","OBJECT_ID":"2022-166AC","EPOCH":"2025-08-01T07:49:01.097760","MEAN_MOTION":13.21826214,"ECCENTRICITY":0.0002214,"INCLINATION":87.9273,"RA_OF_ASC_NODE":307.778,"ARG_OF_PERICENTER":102.5766,"MEAN_ANOMALY":257.5615,"EPHEMERIS_TYPE":0,"CLASSIFICATION_TYPE":"U","NORAD_CAT_ID":54668,"ELEMENT_SET_NO":999,"REV_AT_EPOCH":12918,"BSTAR":-2.9359e-5,"MEAN_MOTION_DOT":1.0e-8,"MEAN_MOTION_DDOT":0},{"OBJECT_NAME":"ONEWEB-0605","OBJECT_ID":"2022-166AD","EPOCH":"2025-08-01T07:39:55.061856","MEAN_MOTION":13.21826209,"ECCENTRICITY":0.0002015,"INCLINATION":87.9272,"RA_OF_ASC_NODE":307.8102,"ARG_OF_PERICENTER":119.94,"MEAN_ANOMALY":240.1934,"EPHEMERIS_TYPE":0,"CLASSIFICATION_TYPE":"U","NORAD_CAT_ID":54669,"ELEMENT_SET_NO":999,"REV_AT_EPOCH":12925,"BSTAR":0.00010466,"MEAN_MOTION_DOT":5.6e-7,"MEAN_MOTION_DDOT":0},{"OBJECT_NAME":"ONEWEB-0606","OBJECT_ID":"2022-166AE","EPOCH":"2025-08-01T06:22:43.284864","MEAN_MOTION":13.21826106,"ECCENTRICITY":0.0001889,"INCLINATION":87.927,"RA_OF_ASC_NODE":307.8318,"ARG_OF_PERICENTER":96.0022,"MEAN_ANOMALY":264.1327,"EPHEMERIS_TYPE":0,"CLASSIFICATION_TYPE":"U","NORAD_CAT_ID":54670,"ELEMENT_SET_NO":999,"REV_AT_EPOCH":12930,"BSTAR":6.2039e-5,"MEAN_MOTION_DOT":3.9e-7,"MEAN_MOTION_DDOT":0},{"OBJECT_NAME":"ONEWEB-0607","OBJECT_ID":"2022-166AF","EPOCH":"2025-08-01T12:51:03.032064","MEAN_MOTION":13.2182466,"ECCENTRICITY":0.0002102,"INCLINATION":87.927,"RA_OF_ASC_NODE":307.7424,"ARG_OF_PERICENTER":103.4964,"MEAN_ANOMALY":256.6404,"EPHEMERIS_TYPE":0,"CLASSIFICATION_TYPE":"U","NORAD_CAT_ID":54671,"ELEMENT_SET_NO":999,"REV_AT_EPOCH":12931,"BSTAR":0.00017898,"MEAN_MOTION_DOT":8.7e-7,"MEAN_MOTION_DDOT":0},{"OBJECT_NAME":"ONEWEB-0608","OBJECT_ID":"2022-166AG","EPOCH":"2025-08-01T13:00:06.310944","MEAN_MOTION":13.21827648,"ECCENTRICITY":0.0002251,"INCLINATION":87.9263,"RA_OF_ASC_NODE":307.7276,"ARG_OF_PERICENTER":112.8475,"MEAN_ANOMALY":247.2897,"EPHEMERIS_TYPE":0,"CLASSIFICATION_TYPE":"U","NORAD_CAT_ID":54672,"ELEMENT_SET_NO":999,"REV_AT_EPOCH":12932,"BSTAR":6.8148e-5,"MEAN_MOTION_DOT":4.1e-7,"MEAN_MOTION_DDOT":0},{"OBJECT_NAME":"ONEWEB-0610","OBJECT_ID":"2022-166AH","EPOCH":"2025-08-01T07:05:49.940160","MEAN_MOTION":13.2183202,"ECCENTRICITY":0.0002284,"INCLINATION":87.9271,"RA_OF_ASC_NODE":307.8105,"ARG_OF_PERICENTER":114.25,"MEAN_ANOMALY":245.8873,"EPHEMERIS_TYPE":0,"CLASSIFICATION_TYPE":"U","NORAD_CAT_ID":54673,"ELEMENT_SET_NO":999,"REV_AT_EPOCH":12919,"BSTAR":0.00017108,"MEAN_MOTION_DOT":8.4e-7,"MEAN_MOTION_DDOT":0},{"OBJECT_NAME":"ONEWEB-0611","OBJECT_ID":"2022-166AJ","EPOCH":"2025-08-01T06:56:46.127328","MEAN_MOTION":13.21826823,"ECCENTRICITY":0.000199,"INCLINATION":87.9269,"RA_OF_ASC_NODE":307.8085,"ARG_OF_PERICENTER":92.7459,"MEAN_ANOMALY":267.3903,"EPHEMERIS_TYPE":0,"CLASSIFICATION_TYPE":"U","NORAD_CAT_ID":54674,"ELEMENT_SET_NO":999,"REV_AT_EPOCH":12918,"BSTAR":8.0807e-5,"MEAN_MOTION_DOT":4.6e-7,"MEAN_MOTION_DDOT":0},{"OBJECT_NAME":"ONEWEB-0612","OBJECT_ID":"2022-166AK","EPOCH":"2025-08-01T12:41:57.208704","MEAN_MOTION":13.21825618,"ECCENTRICITY":0.0002093,"INCLINATION":87.9271,"RA_OF_ASC_NODE":307.7381,"ARG_OF_PERICENTER":105.2833,"MEAN_ANOMALY":254.8533,"EPHEMERIS_TYPE":0,"CLASSIFICATION_TYPE":"U","NORAD_CAT_ID":54675,"ELEMENT_SET_NO":999,"REV_AT_EPOCH":12920,"BSTAR":0.00028948,"MEAN_MOTION_DOT":1.33e-6,"MEAN_MOTION_DDOT":0},{"OBJECT_NAME":"ONEWEB-0615","OBJECT_ID":"2022-166AL","EPOCH":"2025-08-01T06:47:41.317440","MEAN_MOTION":13.21827008,"ECCENTRICITY":0.0002009,"INCLINATION":87.9271,"RA_OF_ASC_NODE":307.8134,"ARG_OF_PERICENTER":99.02,"MEAN_ANOMALY":261.1161,"EPHEMERIS_TYPE":0,"CLASSIFICATION_TYPE":"U","NORAD_CAT_ID":54676,"ELEMENT_SET_NO":999,"REV_AT_EPOCH":12918,"BSTAR":0.00030658,"MEAN_MOTION_DOT":1.4e-6,"MEAN_MOTION_DDOT":0},{"OBJECT_NAME":"ONEWEB-0655","OBJECT_ID":"2022-166AM","EPOCH":"2025-08-01T06:09:04.730400","MEAN_MOTION":13.21824314,"ECCENTRICITY":0.0002307,"INCLINATION":87.9271,"RA_OF_ASC_NODE":307.8239,"ARG_OF_PERICENTER":99.8132,"MEAN_ANOMALY":260.3263,"EPHEMERIS_TYPE":0,"CLASSIFICATION_TYPE":"U","NORAD_CAT_ID":54677,"ELEMENT_SET_NO":999,"REV_AT_EPOCH":12917,"BSTAR":1.866e-5,"MEAN_MOTION_DOT":2.1e-7,"MEAN_MOTION_DDOT":0},{"OBJECT_NAME":"ONEWEB-0659","OBJECT_ID":"2022-166AN","EPOCH":"2025-08-01T06:34:03.932832","MEAN_MOTION":13.21826129,"ECCENTRICITY":0.0001855,"INCLINATION":87.9269,"RA_OF_ASC_NODE":307.8211,"ARG_OF_PERICENTER":98.0157,"MEAN_ANOMALY":262.1188,"EPHEMERIS_TYPE":0,"CLASSIFICATION_TYPE":"U","NORAD_CAT_ID":54678,"ELEMENT_SET_NO":999,"REV_AT_EPOCH":12926,"BSTAR":0.00022238,"MEAN_MOTION_DOT":1.05e-6,"MEAN_MOTION_DDOT":0},{"OBJECT_NAME":"ONEWEB-0685","OBJECT_ID":"2022-166AP","EPOCH":"2025-08-01T06:36:21.039264","MEAN_MOTION":13.21825906,"ECCENTRICITY":0.000214,"INCLINATION":87.9272,"RA_OF_ASC_NODE":307.8162,"ARG_OF_PERICENTER":106.7722,"MEAN_ANOMALY":253.3647,"EPHEMERIS_TYPE":0,"CLASSIFICATION_TYPE":"U","NORAD_CAT_ID":54679,"ELEMENT_SET_NO":999,"REV_AT_EPOCH":12915,"BSTAR":0.00018753,"MEAN_MOTION_DOT":9.0e-7,"MEAN_MOTION_DDOT":0},{"OBJECT_NAME":"ONEWEB-0712","OBJECT_ID":"2022-166AQ","EPOCH":"2025-08-01T06:21:18.796032","MEAN_MOTION":13.16595314,"ECCENTRICITY":0.0002596,"INCLINATION":87.9047,"RA_OF_ASC_NODE":292.5327,"ARG_OF_PERICENTER":94.6192,"MEAN_ANOMALY":265.5236,"EPHEMERIS_TYPE":0,"CLASSIFICATION_TYPE":"U","NORAD_CAT_ID":54680,"ELEMENT_SET_NO":999,"REV_AT_EPOCH":12996,"BSTAR":-2.8058e-5,"MEAN_MOTION_DOT":2.0e-8,"MEAN_MOTION_DDOT":0},{"OBJECT_NAME":"ONEWEB-0714","OBJECT_ID":"2022-166AR","EPOCH":"2025-08-01T06:45:25.306560","MEAN_MOTION":13.21826767,"ECCENTRICITY":0.0002185,"INCLINATION":87.9273,"RA_OF_ASC_NODE":307.8082,"ARG_OF_PERICENTER":103.868,"MEAN_ANOMALY":256.2697,"EPHEMERIS_TYPE":0,"CLASSIFICATION_TYPE":"U","NORAD_CAT_ID":54681,"ELEMENT_SET_NO":999,"REV_AT_EPOCH":12927,"BSTAR":0.00021636,"MEAN_MOTION_DOT":1.02e-6,"MEAN_MOTION_DDOT":0},{"OBJECT_NAME":"ONEWEB-0532","OBJECT_ID":"2023-004A","EPOCH":"2025-08-01T20:58:00.492384","MEAN_MOTION":13.17649572,"ECCENTRICITY":0.0001418,"INCLINATION":87.9038,"RA_OF_ASC_NODE":69.4092,"ARG_OF_PERICENTER":93.709,"MEAN_ANOMALY":266.4204,"EPHEMERIS_TYPE":0,"CLASSIFICATION_TYPE":"U","NORAD_CAT_ID":55140,"ELEMENT_SET_NO":999,"REV_AT_EPOCH":12553,"BSTAR":-7.5279e-5,"MEAN_MOTION_DOT":-1.6e-7,"MEAN_MOTION_DDOT":0},{"OBJECT_NAME":"ONEWEB-0533","OBJECT_ID":"2023-004B","EPOCH":"2025-08-01T11:45:40.113504","MEAN_MOTION":13.12442248,"ECCENTRICITY":0.0001897,"INCLINATION":87.8859,"RA_OF_ASC_NODE":54.2157,"ARG_OF_PERICENTER":91.1343,"MEAN_ANOMALY":269.0002,"EPHEMERIS_TYPE":0,"CLASSIFICATION_TYPE":"U","NORAD_CAT_ID":55141,"ELEMENT_SET_NO":999,"REV_AT_EPOCH":12612,"BSTAR":-7.5599e-6,"MEAN_MOTION_DOT":1.0e-7,"MEAN_MOTION_DDOT":0},{"OBJECT_NAME":"ONEWEB-0541","OBJECT_ID":"2023-004C","EPOCH":"2025-08-01T13:48:10.355904","MEAN_MOTION":13.11415371,"ECCENTRICITY":0.0001727,"INCLINATION":87.8808,"RA_OF_ASC_NODE":84.7501,"ARG_OF_PERICENTER":79.57,"MEAN_ANOMALY":280.5622,"EPHEMERIS_TYPE":0,"CLASSIFICATION_TYPE":"U","NORAD_CAT_ID":55142,"ELEMENT_SET_NO":999,"REV_AT_EPOCH":12406,"BSTAR":-0.00021011,"MEAN_MOTION_DOT":-6.2e-7,"MEAN_MOTION_DDOT":0},{"OBJECT_NAME":"ONEWEB-0543","OBJECT_ID":"2023-004D","EPOCH":"2025-08-01T11:54:23.420160","MEAN_MOTION":13.18685115,"ECCENTRICITY":0.0002068,"INCLINATION":87.911,"RA_OF_ASC_NODE":39.0201,"ARG_OF_PERICENTER":87.1497,"MEAN_ANOMALY":272.9872,"EPHEMERIS_TYPE":0,"CLASSIFICATION_TYPE":"U","NORAD_CAT_ID":55143,"ELEMENT_SET_NO":999,"REV_AT_EPOCH":12756,"BSTAR":-0.00072973,"MEAN_MOTION_DOT":-2.75e-6,"MEAN_MOTION_DDOT":0},{"OBJECT_NAME":"ONEWEB-0544","OBJECT_ID":"2023-004E","EPOCH":"2025-08-01T11:44:53.253600","MEAN_MOTION":13.18684999,"ECCENTRICITY":0.0001872,"INCLINATION":87.9112,"RA_OF_ASC_NODE":39.0115,"ARG_OF_PERICENTER":82.3326,"MEAN_ANOMALY":277.8019,"EPHEMERIS_TYPE":0,"CLASSIFICATION_TYPE":"U","NORAD_CAT_ID":55144,"ELEMENT_SET_NO":999,"REV_AT_EPOCH":12756,"BSTAR":-0.0004371,"MEAN_MOTION_DOT":-1.59e-6,"MEAN_MOTION_DDOT":0}]
